OBJECT_NAME,OBJECT_ID,EPOCH,MEAN_MOTION,ECCENTRICITY,INCLINATION,RA_OF_ASC_NODE,ARG_OF_PERICENTER,MEAN_ANOMALY,EPHEMERIS_TYPE,CLASSIFICATION_TYPE,NORAD_CAT_ID,ELEMENT_SET_NO,REV_AT_EPOCH,BSTAR,MEAN_MOTION_DOT,MEAN_MOTION_DDOT
STARLINK-31490,2024-046X,2026-06-27T22:15:03.070368,15.30196037,.00010859,53.1616,3.5565,77.9886,282.1237,0,U,59222,999,12991,.392711E-5,-.243E-5,0
STARLINK-31420,2024-046Y,2026-06-27T22:10:29.375904,15.30200770,.00008845,53.1613,3.5369,77.2420,282.8680,0,U,59223,999,12991,.44154366E-4,.949E-5,0
STRIX-3,2024-047A,2026-06-27T21:54:20.480256,15.19546134,.00142083,97.6619,154.7468,33.9245,326.2895,0,U,59224,999,12637,.41504209E-3,.8778E-4,0
STARLINK-31305,2024-049B,2026-06-27T21:35:51.648576,15.27572809,.00016464,43.0051,240.9100,273.0933,86.9730,0,U,59232,999,12924,-.1709475E-4,-.733E-5,0
STARLINK-31459,2024-049C,2026-06-27T12:33:07.441920,15.27573839,.00014507,43.0007,243.2605,283.7384,76.3307,0,U,59233,999,12919,.39139968E-4,.815E-5,0
STARLINK-31438,2024-049D,2026-06-27T20:49:51.241152,15.27586486,.00021024,43.0032,230.3016,272.4893,87.5718,0,U,59234,999,12937,-.12413251E-3,-.3677E-4,0
STARLINK-31467,2024-049E,2026-06-27T15:37:45.014880,15.27582446,.0001259,43.0015,242.5031,263.3982,96.6726,0,U,59235,999,12922,-.4956134E-5,-.398E-5,0
STARLINK-31444,2024-049F,2026-06-27T15:59:28.993920,15.37339046,.00040428,43.0006,167.8189,119.6506,240.4752,0,U,59236,999,13005,.48953299E-3,.18067E-3,0
STARLINK-31505,2024-049G,2026-06-27T14:12:49.150656,15.27634475,.00018086,43.0012,242.9284,268.1898,91.8746,0,U,59237,999,12921,-.34042411E-3,-.9634E-4,0
STARLINK-31494,2024-049H,2026-06-27T21:32:09.431232,15.27575411,.0001298,43.0029,240.9097,268.9891,91.0812,0,U,59238,999,12926,.17919831E-4,.231E-5,0
STARLINK-31303,2024-049J,2026-06-27T14:57:15.085728,15.27567152,.00011348,43.0000,231.8447,267.2948,92.7774,0,U,59239,999,12934,.2045278E-5,-.206E-5,0
STARLINK-31408,2024-049K,2026-06-27T20:55:21.871488,15.27579314,.0001099,43.0018,241.5748,279.1529,80.9198,0,U,59240,999,12925,-.67707026E-4,-.2125E-4,0
STARLINK-31427,2024-049L,2026-06-27T21:00:54.340416,15.27580972,.00010614,43.0019,241.5754,275.4711,84.6019,0,U,59241,999,12925,-.55348413E-4,-.1785E-4,0
STARLINK-31423,2024-049M,2026-06-27T20:51:39.556512,15.27569433,.00015451,43.0003,241.5522,268.5382,91.5293,0,U,59242,999,12925,.58954776E-4,.136E-4,0
STARLINK-31433,2024-049N,2026-06-27T12:23:52.449792,15.27582807,.00016308,43.0030,243.2123,273.2684,86.7981,0,U,59243,999,12920,-.32265477E-4,-.115E-4,0
STARLINK-31285,2024-049P,2026-06-27T21:26:37.173120,15.27580106,.00001881,42.9996,240.8779,269.8285,90.2545,0,U,59244,999,12925,-.36599011E-4,-.1269E-4,0
STARLINK-31284,2024-049R,2026-06-27T12:18:19.288800,15.27578506,.00014265,43.0025,243.1831,281.0050,79.0641,0,U,59246,999,12919,.17989488E-4,.233E-5,0
STARLINK-31424,2024-049S,2026-06-27T20:22:45.099840,15.27613196,.00024986,43.0009,237.9378,281.5757,78.4815,0,U,59247,999,12928,-.37178346E-3,-.1049E-3,0
STARLINK-31405,2024-049T,2026-06-27T20:40:33.564576,15.27572746,.00012079,42.9987,241.4956,271.5300,88.5414,0,U,59248,999,12924,.32275522E-4,.626E-5,0
STARLINK-31426,2024-049U,2026-06-27T20:46:06.938976,15.27556584,.00008917,43.0013,241.5169,269.7336,90.3413,0,U,59249,999,12924,.7053059E-5,-.68E-6,0
STARLINK-31407,2024-049V,2026-06-27T20:25:47.266464,15.27571822,.00006411,43.0000,230.1713,277.8822,82.1957,0,U,59250,999,12937,-.10283312E-3,-.309E-4,0
STARLINK-31393,2024-049X,2026-06-27T14:24:39.292992,15.27575972,.00017057,43.0029,228.2607,279.2951,80.7708,0,U,59252,999,12938,.24680192E-4,.417E-5,0
STARLINK-31425,2024-049Y,2026-06-27T21:37:42.453984,15.27575009,.00013202,43.0031,240.9372,280.7250,79.3453,0,U,59253,999,12925,.39214536E-4,.817E-5,0
STARLINK-31659,2024-050A,2026-06-27T20:42:30.230496,15.34400983,.00010168,53.1601,25.2109,78.0812,282.0304,0,U,59254,999,12862,.9638215E-5,-.5E-6,0
STARLINK-31629,2024-050B,2026-06-27T20:19:48.031680,15.30186860,.00015713,53.1616,29.3615,100.1756,259.9422,0,U,59255,999,12741,.17457505E-3,.4812E-4,0
STARLINK-31652,2024-050C,2026-06-27T21:08:52.791648,15.31709667,.00011122,53.1611,28.8697,98.6954,261.4173,0,U,59256,999,12742,.31146958E-4,.602E-5,0
STARLINK-31637,2024-050E,2026-06-27T22:00:01.999584,15.34218793,.00022985,53.1591,28.7812,19.0199,136.6719,0,U,59258,999,587,.22841895E-2,.77151E-3,0
STARLINK-31506,2024-050F,2026-06-27T20:15:14.026176,15.30202087,.00008528,53.1610,29.3430,90.3072,269.8026,0,U,59259,999,12741,.50843336E-4,.1147E-4,0
STARLINK-31639,2024-050H,2026-06-27T21:02:09.986208,15.31706711,.00007593,53.1586,28.8403,70.6778,289.4305,0,U,59261,999,12742,.16903575E-3,.4885E-4,0
STARLINK-31598,2024-050K,2026-06-27T22:59:23.091360,15.34408299,.0000944,53.1611,28.6124,86.3000,273.8111,0,U,59263,999,12743,.94665388E-4,.2824E-4,0
