STARLINK-31490          
1 59222U 24046X   26178.92711887 -.00000243  00000+0  39271-5 0  9999
2 59222  53.1616   3.5565 0001085  77.9886 282.1237 15.30196037129919
STARLINK-31420          
1 59223U 24046Y   26178.92395111  .00000949  00000+0  44154-4 0  9995
2 59223  53.1613   3.5369 0000884  77.2420 282.8680 15.30200770129911
STRIX-3                 
1 59224U 24047A   26178.91273704  .00008778  00000+0  41504-3 0  9992
2 59224  97.6619 154.7468 0014208  33.9245 326.2895 15.19546134126371
STARLINK-31305          
1 59232U 24049B   26178.89990334 -.00000733  00000+0 -17095-4 0  9999
2 59232  43.0051 240.9100 0001646 273.0933  86.9730 15.27572809129243
STARLINK-31459          
1 59233U 24049C   26178.52300280  .00000815  00000+0  39140-4 0  9999
2 59233  43.0007 243.2605 0001450 283.7384  76.3307 15.27573839129193
STARLINK-31438          
1 59234U 24049D   26178.86795418 -.00003677  00000+0 -12413-3 0  9992
2 59234  43.0032 230.3016 0002102 272.4893  87.5718 15.27586486129372
STARLINK-31467          
1 59235U 24049E   26178.65121545 -.00000398  00000+0 -49561-5 0  9997
2 59235  43.0015 242.5031 0001259 263.3982  96.6726 15.27582446129222
STARLINK-31444          
1 59236U 24049F   26178.66630780  .00018067  00000+0  48953-3 0  9997
2 59236  43.0006 167.8189 0004042 119.6506 240.4752 15.37339046130052
STARLINK-31505          
1 59237U 24049G   26178.59223554 -.00009634  00000+0 -34042-3 0  9993
2 59237  43.0012 242.9284 0001808 268.1898  91.8746 15.27634475129212
STARLINK-31494          
1 59238U 24049H   26178.89733138  .00000231  00000+0  17920-4 0  9990
2 59238  43.0029 240.9097 0001298 268.9891  91.0812 15.27575411129260
STARLINK-31303          
1 59239U 24049J   26178.62309127 -.00000206  00000+0  20453-5 0  9998
2 59239  43.0000 231.8447 0001134 267.2948  92.7774 15.27567152129349
STARLINK-31408          
1 59240U 24049K   26178.87178092 -.00002125  00000+0 -67707-4 0  9997
2 59240  43.0018 241.5748 0001099 279.1529  80.9198 15.27579314129251
STARLINK-31427          
1 59241U 24049L   26178.87562894 -.00001785  00000+0 -55348-4 0  9994
2 59241  43.0019 241.5754 0001061 275.4711  84.6019 15.27580972129256
STARLINK-31423          
1 59242U 24049M   26178.86920783  .00001360  00000+0  58955-4 0  9993
2 59242  43.0003 241.5522 0001545 268.5382  91.5293 15.27569433129257
STARLINK-31433          
1 59243U 24049N   26178.51657928 -.00001150  00000+0 -32265-4 0  9999
2 59243  43.0030 243.2123 0001630 273.2684  86.7981 15.27582807129202
STARLINK-31285          
1 59244U 24049P   26178.89348580 -.00001269  00000+0 -36599-4 0  9997
2 59244  42.9996 240.8779 0000188 269.8285  90.2545 15.27580106129258
STARLINK-31284          
1 59246U 24049R   26178.51272325  .00000233  00000+0  17989-4 0  9991
2 59246  43.0025 243.1831 0001426 281.0050  79.0641 15.27578506129198
STARLINK-31424          
1 59247U 24049S   26178.84913310 -.00010490  00000+0 -37178-3 0  9993
2 59247  43.0009 237.9378 0002498 281.5757  78.4815 15.27613196129288
STARLINK-31405          
1 59248U 24049T   26178.86149959  .00000626  00000+0  32276-4 0  9999
2 59248  42.9987 241.4956 0001207 271.5300  88.5414 15.27572746129242
STARLINK-31426          
1 59249U 24049U   26178.86535809 -.00000068  00000+0  70531-5 0  9991
2 59249  43.0013 241.5169 0000891 269.7336  90.3413 15.27556584129240
STARLINK-31407          
1 59250U 24049V   26178.85124151 -.00003090  00000+0 -10283-3 0  9991
2 59250  43.0000 230.1713 0000641 277.8822  82.1957 15.27571822129378
STARLINK-31393          
1 59252U 24049X   26178.60045478  .00000417  00000+0  24680-4 0  9995
2 59252  43.0029 228.2607 0001705 279.2951  80.7708 15.27575972129381
STARLINK-31425          
1 59253U 24049Y   26178.90118581  .00000817  00000+0  39215-4 0  9999
2 59253  43.0031 240.9372 0001320 280.7250  79.3453 15.27575009129255
STARLINK-31659          
1 59254U 24050A   26178.86284989 -.00000050  00000+0  96382-5 0  9992
2 59254  53.1601  25.2109 0001016  78.0812 282.0304 15.34400983128621
STARLINK-31629          
1 59255U 24050B   26178.84708370  .00004812  00000+0  17458-3 0  9990
2 59255  53.1616  29.3615 0001571 100.1756 259.9422 15.30186860127416
STARLINK-31652          
1 59256U 24050C   26178.88116657  .00000602  00000+0  31147-4 0  9991
2 59256  53.1611  28.8697 0001112  98.6954 261.4173 15.31709667127427
STARLINK-31637          
1 59258U 24050E   26178.91668981  .00077151  00000+0  22842-2 0  9992
2 59258  53.1591  28.7812 0002298  19.0199 136.6719 15.34218793  5879
STARLINK-31506          
1 59259U 24050F   26178.84391234  .00001147  00000+0  50843-4 0  9995
2 59259  53.1610  29.3430 0000852  90.3072 269.8026 15.30202087127411
STARLINK-31639          
1 59261U 24050H   26178.87650447  .00004885  00000+0  16904-3 0  9996
2 59261  53.1586  28.8403 0000759  70.6778 289.4305 15.31706711127423
STARLINK-31598          
1 59263U 24050K   26178.95790615  .00002824  00000+0  94665-4 0  9991
2 59263  53.1611  28.6124 0000944  86.3000 273.8111 15.34408299127436
